start=new Date('2022-08-07T00:00:00.000Z').valueOf();
sats=[{"RCS_SIZE":"LARGE","MEAN_MOTION_DDOT":"0.0000000000000","BSTAR":"-0.00003678000000","CENTER_NAME":"EARTH","MEAN_MOTION_DOT":"-0.00000829","MEAN_ELEMENT_THEORY":"SGP4","REF_FRAME":"TEME","NORAD_CAT_ID":"46056","OBJECT_ID":"2020-055AF","REV_AT_EPOCH":"11145","ECCENTRICITY":"0.00017920","PERIAPSIS":"545.988","ELEMENT_SET_NO":"999","LAUNCH_DATE":"2020-08-07","PERIOD":"95.592","FILE":"3530813","ARG_OF_PERICENTER":"55.5644","EPOCH":"2022-08-06T18:06:32.561856","SITE":"AFETR","EPHEMERIS_TYPE":"0","TLE_LINE2":"2 46056  53.0544 241.6289 0001792  55.5644 304.5514 15.06394804111458","MEAN_MOTION":"15.06394804","COUNTRY_CODE":"US","OBJECT_NAME":"STARLINK-1561","OBJECT_TYPE":"PAYLOAD","TIME_SYSTEM":"UTC","RA_OF_ASC_NODE":"241.6289","CLASSIFICATION_TYPE":"U","SEMIMAJOR_AXIS":"6925.364","MEAN_ANOMALY":"304.5514","GP_ID":"209722863","APOAPSIS":"548.471","INCLINATION":"53.0544","TLE_LINE1":"1 46056U 20055AF  22218.75454354 -.00000829  00000-0 -36780-4 0  9994","DECAY_DATE":null},{"TLE_LINE1":"1 46058U 20055AH  22218.76654689 -.00000431  00000-0 -10075-4 0  9998","DECAY_DATE":null,"GP_ID":"209723112","APOAPSIS":"548.006","INCLINATION":"53.0539","MEAN_ANOMALY":"287.8722","CLASSIFICATION_TYPE":"U","SEMIMAJOR_AXIS":"6925.367","OBJECT_NAME":"STARLINK-1564","OBJECT_TYPE":"PAYLOAD","TIME_SYSTEM":"UTC","RA_OF_ASC_NODE":"241.5770","MEAN_MOTION":"15.06394144","COUNTRY_CODE":"US","TLE_LINE2":"2 46058  53.0539 241.5770 0001119  72.2389 287.8722 15.06394144111443","SITE":"AFETR","EPHEMERIS_TYPE":"0","ARG_OF_PERICENTER":"72.2389","EPOCH":"2022-08-06T18:23:49.651296","PERIAPSIS":"546.457","ECCENTRICITY":"0.00011190","LAUNCH_DATE":"2020-08-07","PERIOD":"95.593","ELEMENT_SET_NO":"999","FILE":"3530813","OBJECT_ID":"2020-055AH","REV_AT_EPOCH":"11144","MEAN_ELEMENT_THEORY":"SGP4","REF_FRAME":"TEME","NORAD_CAT_ID":"46058","MEAN_MOTION_DDOT":"0.0000000000000","RCS_SIZE":"LARGE","CENTER_NAME":"EARTH","BSTAR":"-0.00001007500000","MEAN_MOTION_DOT":"-0.00000431"},{"MEAN_MOTION_DOT":"0.00001349","BSTAR":"0.00010942000000","CENTER_NAME":"EARTH","RCS_SIZE":"LARGE","MEAN_MOTION_DDOT":"0.0000000000000","NORAD_CAT_ID":"46059","REF_FRAME":"TEME","MEAN_ELEMENT_THEORY":"SGP4","REV_AT_EPOCH":"11140","OBJECT_ID":"2020-055AJ","FILE":"3530813","LAUNCH_DATE":"2020-08-07","PERIOD":"95.592","ELEMENT_SET_NO":"999","ECCENTRICITY":"0.00014510","PERIAPSIS":"546.222","EPOCH":"2022-08-06T18:34:26.213664","ARG_OF_PERICENTER":"80.1238","EPHEMERIS_TYPE":"0","SITE":"AFETR","TLE_LINE2":"2 46059  53.0535 241.5568 0001451  80.1238 279.9915 15.06395612111408","COUNTRY_CODE":"US","MEAN_MOTION":"15.06395612","OBJECT_TYPE":"PAYLOAD","RA_OF_ASC_NODE":"241.5568","TIME_SYSTEM":"UTC","OBJECT_NAME":"STARLINK-1570","SEMIMAJOR_AXIS":"6925.362","CLASSIFICATION_TYPE":"U","MEAN_ANOMALY":"279.9915","INCLINATION":"53.0535","APOAPSIS":"548.232","GP_ID":"209723363","TLE_LINE1":"1 46059U 20055AJ  22218.77391451  .00001349  00000-0  10942-3 0  9994","DECAY_DATE":null},{"OBJECT_ID":"2020-055AK","REV_AT_EPOCH":"11141","FILE":"3530813","PERIAPSIS":"546.236","ECCENTRICITY":"0.00013910","LAUNCH_DATE":"2020-08-07","PERIOD":"95.592","ELEMENT_SET_NO":"999","BSTAR":"-0.00000318670000","CENTER_NAME":"EARTH","MEAN_MOTION_DOT":"-0.00000329","RCS_SIZE":"LARGE","MEAN_MOTION_DDOT":"0.0000000000000","REF_FRAME":"TEME","MEAN_ELEMENT_THEORY":"SGP4","NORAD_CAT_ID":"46060","EPHEMERIS_TYPE":"0","SITE":"AFETR","ARG_OF_PERICENTER":"69.9163","EPOCH":"2022-08-06T18:29:07.490112","TIME_SYSTEM":"UTC","OBJECT_TYPE":"PAYLOAD","RA_OF_ASC_NODE":"241.5714","OBJECT_NAME":"STARLINK-1572","TLE_LINE2":"2 46060  53.0547 241.5714 0001391  69.9163 290.1976 15.06404578111416","COUNTRY_CODE":"US","MEAN_MOTION":"15.06404578","APOAPSIS":"548.163","INCLINATION":"53.0547","GP_ID":"209723614","DECAY_DATE":null,"TLE_LINE1":"1 46060U 20055AK  22218.77022558 -.00000329  00000-0 -31867-5 0  9995","CLASSIFICATION_TYPE":"U","SEMIMAJOR_AXIS":"6925.335","MEAN_ANOMALY":"290.1976"},{"TLE_LINE2":"2 46061  53.0537 241.6069 0001548  60.7719 299.3425 15.06398808111441","MEAN_MOTION":"15.06398808","COUNTRY_CODE":"US","OBJECT_NAME":"STARLINK-1573","OBJECT_TYPE":"PAYLOAD","TIME_SYSTEM":"UTC","RA_OF_ASC_NODE":"241.6069","CLASSIFICATION_TYPE":"U","SEMIMAJOR_AXIS":"6925.352","MEAN_ANOMALY":"299.3425","GP_ID":"209722364","APOAPSIS":"548.289","INCLINATION":"53.0537","TLE_LINE1":"1 46061U 20055AL  22218.76285500 -.00000617  00000-0 -22534-4 0  9993","DECAY_DATE":null,"MEAN_MOTION_DDOT":"0.0000000000000","RCS_SIZE":"LARGE","BSTAR":"-0.00002253400000","CENTER_NAME":"EARTH","MEAN_MOTION_DOT":"-0.00000617","REF_FRAME":"TEME","MEAN_ELEMENT_THEORY":"SGP4","NORAD_CAT_ID":"46061","OBJECT_ID":"2020-055AL","REV_AT_EPOCH":"11144","ECCENTRICITY":"0.00015480","PERIAPSIS":"546.145","LAUNCH_DATE":"2020-08-07","ELEMENT_SET_NO":"999","PERIOD":"95.592","FILE":"3530813","ARG_OF_PERICENTER":"60.7719","EPOCH":"2022-08-06T18:18:30.672000","SITE":"AFETR","EPHEMERIS_TYPE":"0"},{"OBJECT_NAME":"STARLINK-1574","RA_OF_ASC_NODE":"241.4431","OBJECT_TYPE":"PAYLOAD","TIME_SYSTEM":"UTC","MEAN_MOTION":"15.06392977","COUNTRY_CODE":"US","TLE_LINE2":"2 46062  53.0527 241.4431 0001738  61.1759 298.9405 15.06392977111413","TLE_LINE1":"1 46062U 20055AM  22218.79603465  .00001274  00000-0  10443-3 0  9994","DECAY_DATE":null,"GP_ID":"209722614","INCLINATION":"53.0527","APOAPSIS":"548.439","MEAN_ANOMALY":"298.9405","SEMIMAJOR_AXIS":"6925.370","CLASSIFICATION_TYPE":"U","LAUNCH_DATE":"2020-08-07","PERIOD":"95.593","ELEMENT_SET_NO":"999","PERIAPSIS":"546.031","ECCENTRICITY":"0.00017380","FILE":"3530813","REV_AT_EPOCH":"11141","OBJECT_ID":"2020-055AM","NORAD_CAT_ID":"46062","MEAN_ELEMENT_THEORY":"SGP4","REF_FRAME":"TEME","MEAN_MOTION_DDOT":"0.0000000000000","RCS_SIZE":"LARGE","MEAN_MOTION_DOT":"0.00001274","BSTAR":"0.00010443000000","CENTER_NAME":"EARTH","SITE":"AFETR","EPHEMERIS_TYPE":"0","EPOCH":"2022-08-06T19:06:17.393760","ARG_OF_PERICENTER":"61.1759"},{"COUNTRY_CODE":"US","MEAN_MOTION":"15.06391140","TLE_LINE2":"2 46063  53.0528 241.4767 0001449  83.5349 276.5805 15.06391140111449","TIME_SYSTEM":"UTC","OBJECT_TYPE":"PAYLOAD","RA_OF_ASC_NODE":"241.4767","OBJECT_NAME":"STARLINK-1577","MEAN_ANOMALY":"276.5805","SEMIMAJOR_AXIS":"6925.376","CLASSIFICATION_TYPE":"U","TLE_LINE1":"1 46063U 20055AN  22218.79235032  .00001083  00000-0  91619-4 0  9999","DECAY_DATE":null,"INCLINATION":"53.0528","APOAPSIS":"548.244","GP_ID":"209723864","NORAD_CAT_ID":"46063","REF_FRAME":"TEME","MEAN_ELEMENT_THEORY":"SGP4","MEAN_MOTION_DOT":"0.00001083","BSTAR":"0.00009161900000","CENTER_NAME":"EARTH","MEAN_MOTION_DDOT":"0.0000000000000","RCS_SIZE":"LARGE","FILE":"3530813","LAUNCH_DATE":"2020-08-07","PERIOD":"95.593","ELEMENT_SET_NO":"999","ECCENTRICITY":"0.00014490","PERIAPSIS":"546.237","REV_AT_EPOCH":"11144","OBJECT_ID":"2020-055AN","EPOCH":"2022-08-06T19:00:59.067648","ARG_OF_PERICENTER":"83.5349","EPHEMERIS_TYPE":"0","SITE":"AFETR"},{"NORAD_CAT_ID":"46064","REF_FRAME":"TEME","MEAN_ELEMENT_THEORY":"SGP4","MEAN_MOTION_DOT":"0.00001073","CENTER_NAME":"EARTH","BSTAR":"0.00009090500000","RCS_SIZE":"LARGE","MEAN_MOTION_DDOT":"0.0000000000000","FILE":"3530813","LAUNCH_DATE":"2020-08-07","ELEMENT_SET_NO":"999","PERIOD":"95.592","ECCENTRICITY":"0.00015760","PERIAPSIS":"546.121","REV_AT_EPOCH":"11144","OBJECT_ID":"2020-055AP","EPOCH":"2022-08-06T18:13:12.304416","ARG_OF_PERICENTER":"66.3057","EPHEMERIS_TYPE":"0","SITE":"AFETR","COUNTRY_CODE":"US","MEAN_MOTION":"15.06400433","TLE_LINE2":"2 46064  53.0535 241.6175 0001576  66.3057 293.8097 15.06400433111440","OBJECT_TYPE":"PAYLOAD","TIME_SYSTEM":"UTC","RA_OF_ASC_NODE":"241.6175","OBJECT_NAME":"STARLINK-1583","MEAN_ANOMALY":"293.8097","SEMIMAJOR_AXIS":"6925.347","CLASSIFICATION_TYPE":"U","DECAY_DATE":null,"TLE_LINE1":"1 46064U 20055AP  22218.75917019  .00001073  00000-0  90905-4 0  9994","INCLINATION":"53.0535","APOAPSIS":"548.304","GP_ID":"209724115"},{"OBJECT_NAME":"STARLINK-1515","OBJECT_TYPE":"PAYLOAD","TIME_SYSTEM":"UTC","RA_OF_ASC_NODE":"223.1362","MEAN_MOTION":"15.06405410","COUNTRY_CODE":"US","TLE_LINE2":"2 46065  53.0543 223.1362 0001480  65.9828 294.1316 15.06405410111659","DECAY_DATE":null,"TLE_LINE1":"1 46065U 20055AQ  22218.42095537  .00001085  00000-0  91695-4 0  9991","GP_ID":"209693264","INCLINATION":"53.0543","APOAPSIS":"548.222","MEAN_ANOMALY":"294.1316","SEMIMAJOR_AXIS":"6925.332","CLASSIFICATION_TYPE":"U","LAUNCH_DATE":"2020-08-07","ELEMENT_SET_NO":"999","PERIOD":"95.592","PERIAPSIS":"546.172","ECCENTRICITY":"0.00014800","FILE":"3530579","REV_AT_EPOCH":"11165","OBJECT_ID":"2020-055AQ","NORAD_CAT_ID":"46065","MEAN_ELEMENT_THEORY":"SGP4","REF_FRAME":"TEME","MEAN_MOTION_DDOT":"0.0000000000000","RCS_SIZE":"LARGE","MEAN_MOTION_DOT":"0.00001085","BSTAR":"0.00009169500000","CENTER_NAME":"EARTH","SITE":"AFETR","EPHEMERIS_TYPE":"0","EPOCH":"2022-08-06T10:06:10.543968","ARG_OF_PERICENTER":"65.9828"},{"ARG_OF_PERICENTER":"65.0518","EPOCH":"2022-08-06T07:01:46.498656","SITE":"AFETR","EPHEMERIS_TYPE":"0","MEAN_MOTION_DDOT":"0.0000000000000","RCS_SIZE":"LARGE","CENTER_NAME":"EARTH","BSTAR":"-0.00002102100000","MEAN_MOTION_DOT":"-0.00000595","REF_FRAME":"TEME","MEAN_ELEMENT_THEORY":"SGP4","NORAD_CAT_ID":"46066","OBJECT_ID":"2020-055AR","REV_AT_EPOCH":"11164","ECCENTRICITY":"0.00016220","PERIAPSIS":"546.100","LAUNCH_DATE":"2020-08-07","PERIOD":"95.592","ELEMENT_SET_NO":"999","FILE":"3530579","CLASSIFICATION_TYPE":"U","SEMIMAJOR_AXIS":"6925.359","MEAN_ANOMALY":"295.0640","GP_ID":"209693015","APOAPSIS":"548.347","INCLINATION":"53.0543","DECAY_DATE":null,"TLE_LINE1":"1 46066U 20055AR  22218.29289929 -.00000595  00000-0 -21021-4 0  9990","TLE_LINE2":"2 46066  53.0543 223.7205 0001622  65.0518 295.0640 15.06396732111642","MEAN_MOTION":"15.06396732","COUNTRY_CODE":"US","OBJECT_NAME":"STARLINK-1525","OBJECT_TYPE":"PAYLOAD","RA_OF_ASC_NODE":"223.7205","TIME_SYSTEM":"UTC"}];
